0 CBERS 1 DEB
1 32073U 99057QM  13281.23472485  .00019841  00000-0  34890-2 0  6283
2 32073 098.2303 272.5779 0005119 011.9257 348.2068 14.67638522329393
0 CBERS 1 DEB
1 32073U 99057QM  13283.75731711  .00007424  00000-0  13063-2 0  6296
2 32073 098.2212 275.1217 0005686 355.6631 004.5020 14.67648968327271
0 CBERS 1 DEB
1 32073U 99057QM  13286.21117304  .00024560  00000-0  42876-2 0  6302
2 32073 098.2311 277.5804 0004504 357.8337 002.2847 14.67910229330126
0 CBERS 1 DEB
1 32073U 99057QM  13287.43810925  .00029844  00000-0  51973-2 0  6315
2 32073 098.2295 278.8134 0004033 356.3975 003.7199 14.67968946330301
0 CBERS 1 DEB
1 32073U 99057QM  13287.77891475  .00040029  00000-0  69534-2 0  6322
2 32073 098.2295 279.1564 0003971 354.6943 005.4218 14.67995046330355
0 CBERS 1 DEB
1 32073U 99057QM  13289.21023192  .00038233  00000-0  66287-2 0  6333
2 32073 098.2291 280.5951 0003645 351.4249 008.6893 14.68095726330563
0 CBERS 1 DEB
1 32073U 99057QM  13290.43700704  .00040740  00000-0  70486-2 0  6354
2 32073 098.2290 281.8284 0003393 346.9611 013.1506 14.68168063330744
0 CBERS 1 DEB
1 32073U 99057QM  13290.77777419  .00032638  00000-0  56726-2 0  6345
2 32073 098.2272 282.1676 0004126 343.8008 016.3556 14.68202115328300
0 CBERS 1 DEB
1 32073U 99057QM  13291.73186500  .00035040  00000-0  60578-2 0  6369
2 32073 098.2294 283.1306 0003193 342.6545 017.4550 14.68248900330931
0 CBERS 1 DEB
1 32073U 99057QM  13293.43552116  .00035786  00000-0  61714-2 0  6379
2 32073 098.2301 284.8444 0002926 333.9170 026.1887 14.68353978331181
0 CBERS 1 DEB
1 32073U 99057QM  13294.93463877  .00036235  00000-0  62357-2 0  6385
2 32073 098.2303 286.3520 0002607 329.2675 030.8377 14.68443233331404
